CTC1_L_00600007-03
1 51116U 26327OX  26070.40840278  .00000000  00000+0  00000-0 0  9991
2 51116  60.0000 180.0000 0000000   0.0000 144.0000  5.61059995    10
CTC1_L_00600007-04
1 51117U 24976QP  26070.40840278  .00000000  00000+0  00000-0 0  9990
2 51117  60.0000 180.0000 0000000   0.0000 180.0000  5.61059995    11
CTC1_L_00600007-05
1 51118U 22919PW  26070.40840278  .00000000  00000+0  00000-0 0  9996
2 51118  60.0000 180.0000 0000000   0.0000 216.0000  5.61059995    12
CTC1_L_00600007-06
1 51119U 26559LL  26070.40840278  .00000000  00000+0  00000-0 0  9991
2 51119  60.0000 180.0000 0000000   0.0000 252.0000  5.61059995    13
CTC1_L_00600007-07
1 51120U 25643PN  26070.40840278  .00000000  00000+0  00000-0 0  9996
2 51120  60.0000 180.0000 0000000   0.0000 288.0000  5.61059995    14
CTC1_L_00600007-08
1 51121U 24691WW  26070.40840278  .00000000  00000+0  00000-0 0  9999
2 51121  60.0000 180.0000 0000000   0.0000 324.0000  5.61059995    16
CTC1_L_00600007-09
1 51122U 24599PR  26070.40840278  .00000000  00000+0  00000-0 0  9997
2 51122  60.0000 180.0000 0000000   0.0000   0.0000  5.61059995    18
CTC1_L_00600007-10
1 51123U 26312KU  26070.40840278  .00000000  00000+0  00000-0 0  9993
2 51123  60.0000 180.0000 0000000   0.0000  36.0000  5.61059995    18
CTC1_L_00600008-01
1 51124U 23775MZ  26070.40840278  .00000000  00000+0  00000-0 0  9994
2 51124  60.0000 210.0000 0000000   0.0000  84.0000  5.61059995    16
CTC1_L_00600008-02
1 51125U 23425SJ  26070.40840278  .00000000  00000+0  00000-0 0  9997
2 51125  60.0000 210.0000 0000000   0.0000 120.0000  5.61059995    18
CTC1_L_00600008-03
1 51126U 26495AL  26070.40840278  .00000000  00000+0  00000-0 0  9998
2 51126  60.0000 210.0000 0000000   0.0000 156.0000  5.61059995    18
CTC1_L_00600008-04
1 51127U 26530JT  26070.40840278  .00000000  00000+0  00000-0 0  9999
2 51127  60.0000 210.0000 0000000   0.0000 192.0000  5.61059995    19
CTC1_L_00600008-05
1 51128U 25067OJ  26070.40840278  .00000000  00000+0  00000-0 0  9994
2 51128  60.0000 210.0000 0000000   0.0000 228.0000  5.61059995    10
CTC1_L_00600008-06
1 51129U 25689NM  26070.40840278  .00000000  00000+0  00000-0 0  9995
2 51129  60.0000 210.0000 0000000   0.0000 264.0000  5.61059995    11
CTC1_L_00600008-07
1 51130U 23102JQ  26070.40840278  .00000000  00000+0  00000-0 0  9995
2 51130  60.0000 210.0000 0000000   0.0000 300.0000  5.61059995    14
CTC1_L_00600008-08
1 51131U 26483NI  26070.40840278  .00000000  00000+0  00000-0 0  9991
2 51131  60.0000 210.0000 0000000   0.0000 336.0000  5.61059995    14
CTC1_L_00600008-09
1 51132U 23478KV  26070.40840278  .00000000  00000+0  00000-0 0  9993
2 51132  60.0000 210.0000 0000000   0.0000  12.0000  5.61059995    16
CTC1_L_00600008-10
1 51133U 25441PM  26070.40840278  .00000000  00000+0  00000-0 0  9996
2 51133  60.0000 210.0000 0000000   0.0000  48.0000  5.61059995    16
CTC1_L_00600009-01
1 51134U 25516GK  26070.40840278  .00000000  00000+0  00000-0 0  9990
2 51134  60.0000 240.0000 0000000   0.0000  96.0000  5.61059995    13
CTC1_L_00600009-02
1 51135U 24736QX  26070.40840278  .00000000  00000+0  00000-0 0  9994
2 51135  60.0000 240.0000 0000000   0.0000 132.0000  5.61059995    15
CTC1_L_00600009-03
1 51136U 22102QB  26070.40840278  .00000000  00000+0  00000-0 0  9990
2 51136  60.0000 240.0000 0000000   0.0000 168.0000  5.61059995    15
CTC1_L_00600009-04
1 51137U 26281UH  26070.40840278  .00000000  00000+0  00000-0 0  9993
2 51137  60.0000 240.0000 0000000   0.0000 204.0000  5.61059995    17
CTC1_L_00600009-05
1 51138U 22740NS  26070.40840278  .00000000  00000+0  00000-0 0  9990
2 51138  60.0000 240.0000 0000000   0.0000 240.0000  5.61059995    18
CTC1_L_00600009-06
1 51139U 22911PV  26070.40840278  .00000000  00000+0  00000-0 0  9991
2 51139  60.0000 240.0000 0000000   0.0000 276.0000  5.61059995    18
CTC1_L_00600009-07
1 51140U 24879UC  26070.40840278  .00000000  00000+0  00000-0 0  9998
2 51140  60.0000 240.0000 0000000   0.0000 312.0000  5.61059995    11
CTC1_L_00600009-08
1 51141U 22285Q   26070.40840278  .00000000  00000+0  00000-0 0  9998
2 51141  60.0000 240.0000 0000000   0.0000 348.0000  5.61059995    11
CTC1_L_00600009-09
1 51142U 25013LT  26070.40840278  .00000000  00000+0  00000-0 0  9991
2 51142  60.0000 240.0000 0000000   0.0000  24.0000  5.61059995    13
CTC1_L_00600009-10
1 51143U 22501LZ  26070.40840278  .00000000  00000+0  00000-0 0  9991
2 51143  60.0000 240.0000 0000000   0.0000  60.0000  5.61059995    14
CTC1_L_00600010-01
1 51144U 26041PT  26070.40840278  .00000000  00000+0  00000-0 0  9995
2 51144  60.0000 270.0000 0000000   0.0000 108.0000  5.61059995    11
CTC1_L_00600010-02
1 51145U 25187KJ  26070.40840278  .00000000  00000+0  00000-0 0  9996
2 51145  60.0000 270.0000 0000000   0.0000 144.0000  5.61059995    12
CTC1_L_00600010-03
1 51146U 23603NW  26070.40840278  .00000000  00000+0  00000-0 0  9998
2 51146  60.0000 270.0000 0000000   0.0000 180.0000  5.61059995    13
CTC1_L_00600010-04
1 51147U 24291MO  26070.40840278  .00000000  00000+0  00000-0 0  9993
2 51147  60.0000 270.0000 0000000   0.0000 216.0000  5.61059995    14
CTC1_L_00600010-05
1 51148U 24255MQ  26070.40840278  .00000000  00000+0  00000-0 0  9994
2 51148  60.0000 270.0000 0000000   0.0000 252.0000  5.61059995    15
CTC1_L_00600010-06
1 51149U 24563MR  26070.40840278  .00000000  00000+0  00000-0 0  9997
2 51149  60.0000 270.0000 0000000   0.0000 288.0000  5.61059995    15
CTC1_L_00600010-07
1 51150U 22477YS  26070.40840278  .00000000  00000+0  00000-0 0  9991
2 51150  60.0000 270.0000 0000000   0.0000 324.0000  5.61059995    18
CTC1_L_00600010-08
1 51151U 22324VD  26070.40840278  .00000000  00000+0  00000-0 0  9993
2 51151  60.0000 270.0000 0000000   0.0000   0.0000  5.61059995    10
CTC1_L_00600010-09
1 51152U 22453RN  26070.40840278  .00000000  00000+0  00000-0 0  9997
2 51152  60.0000 270.0000 0000000   0.0000  36.0000  5.61059995    10
CTC1_L_00600010-10
1 51153U 25167YW  26070.40840278  .00000000  00000+0  00000-0 0  9993
2 51153  60.0000 270.0000 0000000   0.0000  72.0000  5.61059995    11
CTC1_L_00600011-01
1 51154U 26311MZ  26070.40840278  .00000000  00000+0  00000-0 0  9996
2 51154  60.0000 300.0000 0000000   0.0000 120.0000  5.61059995    10
CTC1_L_00600011-02
1 51155U 22085JD  26070.40840278  .00000000  00000+0  00000-0 0  9991
2 51155  60.0000 300.0000 0000000   0.0000 156.0000  5.61059995    10
CTC1_L_00600011-03
1 51156U 24760CR  26070.40840278  .00000000  00000+0  00000-0 0  9994
2 51156  60.0000 300.0000 0000000   0.0000 192.0000  5.61059995    11
CTC1_L_00600011-04
1 51157U 26211UR  26070.40840278  .00000000  00000+0  00000-0 0  9998
2 51157  60.0000 300.0000 0000000   0.0000 228.0000  5.61059995    12
CTC1_L_00600011-05
1 51158U 25231OO  26070.40840278  .00000000  00000+0  00000-0 0  9990
2 51158  60.0000 300.0000 0000000   0.0000 264.0000  5.61059995    13
CTC1_L_00600011-06
1 51159U 22176VO  26070.40840278  .00000000  00000+0  00000-0 0  9996
2 51159  60.0000 300.0000 0000000   0.0000 300.0000  5.61059995    15
CTC1_L_00600011-07
1 51160U 25678ZN  26070.40840278  .00000000  00000+0  00000-0 0  9998
2 51160  60.0000 300.0000 0000000   0.0000 336.0000  5.61059995    16
CTC1_L_00600011-08
1 51161U 25680PP  26070.40840278  .00000000  00000+0  00000-0 0  9992
2 51161  60.0000 300.0000 0000000   0.0000  12.0000  5.61059995    18
CTC1_L_00600011-09
1 51162U 24822PL  26070.40840278  .00000000  00000+0  00000-0 0  9990
2 51162  60.0000 300.0000 0000000   0.0000  48.0000  5.61059995    18
CTC1_L_00600011-10
1 51163U 25345WW  26070.40840278  .00000000  00000+0  00000-0 0  9992
2 51163  60.0000 300.0000 0000000   0.0000  84.0000  5.61059995    19
CTC1_L_00600012-01
1 51164U 26950OB  26070.40840278  .00000000  00000+0  00000-0 0  9996
2 51164  60.0000 330.0000 0000000   0.0000 132.0000  5.61059995    17
CTC1_L_00600012-02
1 51165U 23443BM  26070.40840278  .00000000  00000+0  00000-0 0  9991
2 51165  60.0000 330.0000 0000000   0.0000 168.0000  5.61059995    17
CTC1_L_00600012-03
1 51166U 24972EM  26070.40840278  .00000000  00000+0  00000-0 0  9990
2 51166  60.0000 330.0000 0000000   0.0000 204.0000  5.61059995    19
CTC1_L_00600012-04
1 51167U 23556SM  26070.40840278  .00000000  00000+0  00000-0 0  9998
2 51167  60.0000 330.0000 0000000   0.0000 240.0000  5.61059995    10
CTC1_L_00600012-05
1 51168U 25570F   26070.40840278  .00000000  00000+0  00000-0 0  9997
2 51168  60.0000 330.0000 0000000   0.0000 276.0000  5.61059995    10
CTC1_L_00600012-06
1 51169U 26204UU  26070.40840278  .00000000  00000+0  00000-0 0  9993
2 51169  60.0000 330.0000 0000000   0.0000 312.0000  5.61059995    12
CTC1_L_00600012-07
1 51170U 23177DO  26070.40840278  .00000000  00000+0  00000-0 0  9991
2 51170  60.0000 330.0000 0000000   0.0000 348.0000  5.61059995    13
CTC1_L_00600012-08
1 51171U 23982LQ  26070.40840278  .00000000  00000+0  00000-0 0  9996
2 51171  60.0000 330.0000 0000000   0.0000  24.0000  5.61059995    15
CTC1_L_00600012-09
1 51172U 22581LO  26070.40840278  .00000000  00000+0  00000-0 0  9991
2 51172  60.0000 330.0000 0000000   0.0000  60.0000  5.61059995    16
CTC1_L_00600012-10
1 51173U 23236SD  26070.40840278  .00000000  00000+0  00000-0 0  9990
2 51173  60.0000 330.0000 0000000   0.0000  96.0000  5.61059995    16
